CCSDS_OMM_VERS = 2.0
CREATION_DATE  = 
ORIGINATOR     = 

OBJECT_NAME    = HULIANWANG DIGUI-148
OBJECT_ID      = 2026-013C
CENTER_NAME    = EARTH
REF_FRAME      = TEME
TIME_SYSTEM    = UTC
MEAN_ELEMENT_THEORY = SGP/SGP4

EPOCH          = 2026-02-06T11:57:49.148928
MEAN_MOTION    = 13.86045850
ECCENTRICITY   = .00010353
INCLINATION    = 50.0060
RA_OF_ASC_NODE = 112.2692
ARG_OF_PERICENTER = 28.5692
MEAN_ANOMALY   = 331.5262

EPHEMERIS_TYPE = 0
CLASSIFICATION_TYPE = U
NORAD_CAT_ID   = 67524
ELEMENT_SET_NO = 999
REV_AT_EPOCH   = 254
BSTAR          = .16372109E-3
MEAN_MOTION_DOT = .45E-6
MEAN_MOTION_DDOT = 0

CCSDS_OMM_VERS = 2.0
CREATION_DATE  = 
ORIGINATOR     = 

OBJECT_NAME    = HULIANWANG DIGUI-149
OBJECT_ID      = 2026-013D
CENTER_NAME    = EARTH
REF_FRAME      = TEME
TIME_SYSTEM    = UTC
MEAN_ELEMENT_THEORY = SGP/SGP4

EPOCH          = 2026-02-07T08:40:54.063840
MEAN_MOTION    = 13.85279637
ECCENTRICITY   = .0000686
INCLINATION    = 50.0093
RA_OF_ASC_NODE = 108.8357
ARG_OF_PERICENTER = 34.5919
MEAN_ANOMALY   = 325.5022

EPHEMERIS_TYPE = 0
CLASSIFICATION_TYPE = U
NORAD_CAT_ID   = 67525
ELEMENT_SET_NO = 999
REV_AT_EPOCH   = 266
BSTAR          = .14342E-3
MEAN_MOTION_DOT = .19E-6
MEAN_MOTION_DDOT = 0

CCSDS_OMM_VERS = 2.0
CREATION_DATE  = 
ORIGINATOR     = 

OBJECT_NAME    = HULIANWANG DIGUI-150
OBJECT_ID      = 2026-013E
CENTER_NAME    = EARTH
REF_FRAME      = TEME
TIME_SYSTEM    = UTC
MEAN_ELEMENT_THEORY = SGP/SGP4

EPOCH          = 2026-02-06T16:58:12.067104
MEAN_MOTION    = 13.86273245
ECCENTRICITY   = .0000359
INCLINATION    = 50.0014
RA_OF_ASC_NODE = 111.3671
ARG_OF_PERICENTER = 322.4069
MEAN_ANOMALY   = 37.6803

EPHEMERIS_TYPE = 0
CLASSIFICATION_TYPE = U
NORAD_CAT_ID   = 67526
ELEMENT_SET_NO = 999
REV_AT_EPOCH   = 259
BSTAR          = .15093E-3
MEAN_MOTION_DOT = .31E-6
MEAN_MOTION_DDOT = 0

CCSDS_OMM_VERS = 2.0
CREATION_DATE  = 
ORIGINATOR     = 

OBJECT_NAME    = HULIANWANG DIGUI-151
OBJECT_ID      = 2026-013F
CENTER_NAME    = EARTH
REF_FRAME      = TEME
TIME_SYSTEM    = UTC
MEAN_ELEMENT_THEORY = SGP/SGP4

EPOCH          = 2026-02-07T17:13:48.114336
MEAN_MOTION    = 13.87467513
ECCENTRICITY   = .0000273
INCLINATION    = 50.0094
RA_OF_ASC_NODE = 107.3932
ARG_OF_PERICENTER = 98.2307
MEAN_ANOMALY   = 261.8621

EPHEMERIS_TYPE = 0
CLASSIFICATION_TYPE = U
NORAD_CAT_ID   = 67527
ELEMENT_SET_NO = 999
REV_AT_EPOCH   = 271
BSTAR          = .16445E-3
MEAN_MOTION_DOT = .5E-6
MEAN_MOTION_DDOT = 0

CCSDS_OMM_VERS = 2.0
CREATION_DATE  = 
ORIGINATOR     = 

OBJECT_NAME    = HULIANWANG DIGUI-152
OBJECT_ID      = 2026-013G
CENTER_NAME    = EARTH
REF_FRAME      = TEME
TIME_SYSTEM    = UTC
MEAN_ELEMENT_THEORY = SGP/SGP4

EPOCH          = 2026-02-06T20:24:00.446688
MEAN_MOTION    = 13.86415145
ECCENTRICITY   = .0011338
INCLINATION    = 49.9909
RA_OF_ASC_NODE = 110.8762
ARG_OF_PERICENTER = 5.9340
MEAN_ANOMALY   = 354.1690

EPHEMERIS_TYPE = 0
CLASSIFICATION_TYPE = U
NORAD_CAT_ID   = 67528
ELEMENT_SET_NO = 999
REV_AT_EPOCH   = 259
BSTAR          = .16244E-3
MEAN_MOTION_DOT = .45E-6
MEAN_MOTION_DDOT = 0

CCSDS_OMM_VERS = 2.0
CREATION_DATE  = 
ORIGINATOR     = 

OBJECT_NAME    = HULIANWANG DIGUI-153
OBJECT_ID      = 2026-013H
CENTER_NAME    = EARTH
REF_FRAME      = TEME
TIME_SYSTEM    = UTC
MEAN_ELEMENT_THEORY = SGP/SGP4

EPOCH          = 2026-02-07T11:51:25.832736
MEAN_MOTION    = 13.86090346
ECCENTRICITY   = .0000526
INCLINATION    = 50.0020
RA_OF_ASC_NODE = 108.1828
ARG_OF_PERICENTER = 103.0811
MEAN_ANOMALY   = 257.0145

EPHEMERIS_TYPE = 0
CLASSIFICATION_TYPE = U
NORAD_CAT_ID   = 67529
ELEMENT_SET_NO = 999
REV_AT_EPOCH   = 267
BSTAR          = .35564E-4
MEAN_MOTION_DOT = -.103E-5
MEAN_MOTION_DDOT = 0

CCSDS_OMM_VERS = 2.0
CREATION_DATE  = 
ORIGINATOR     = 

OBJECT_NAME    = HULIANWANG DIGUI-154
OBJECT_ID      = 2026-013J
CENTER_NAME    = EARTH
REF_FRAME      = TEME
TIME_SYSTEM    = UTC
MEAN_ELEMENT_THEORY = SGP/SGP4

EPOCH          = 2026-02-07T08:20:33.116928
MEAN_MOTION    = 13.86545192
ECCENTRICITY   = .0000475
INCLINATION    = 50.0072
RA_OF_ASC_NODE = 108.7538
ARG_OF_PERICENTER = 165.1685
MEAN_ANOMALY   = 194.9226

EPHEMERIS_TYPE = 0
CLASSIFICATION_TYPE = U
NORAD_CAT_ID   = 67530
ELEMENT_SET_NO = 999
REV_AT_EPOCH   = 265
BSTAR          = .22216E-3
MEAN_MOTION_DOT = .115E-5
MEAN_MOTION_DDOT = 0

CCSDS_OMM_VERS = 2.0
CREATION_DATE  = 
ORIGINATOR     = 

OBJECT_NAME    = CZ-12 R/B
OBJECT_ID      = 2026-013K
CENTER_NAME    = EARTH
REF_FRAME      = TEME
TIME_SYSTEM    = UTC
MEAN_ELEMENT_THEORY = SGP/SGP4

EPOCH          = 2026-02-07T12:22:37.845984
MEAN_MOTION    = 14.14457818
ECCENTRICITY   = .00686918
INCLINATION    = 49.9922
RA_OF_ASC_NODE = 105.6299
ARG_OF_PERICENTER = 194.0204
MEAN_ANOMALY   = 165.8798

EPHEMERIS_TYPE = 0
CLASSIFICATION_TYPE = U
NORAD_CAT_ID   = 67531
ELEMENT_SET_NO = 999
REV_AT_EPOCH   = 271
BSTAR          = .16269611E-3
MEAN_MOTION_DOT = .166E-5
MEAN_MOTION_DDOT = 0

CCSDS_OMM_VERS = 2.0
CREATION_DATE  = 
ORIGINATOR     = 

OBJECT_NAME    = STARLINK-36587
OBJECT_ID      = 2026-014A
CENTER_NAME    = EARTH
REF_FRAME      = TEME
TIME_SYSTEM    = UTC
MEAN_ELEMENT_THEORY = SGP/SGP4

EPOCH          = 2026-02-07T19:08:43.430496
MEAN_MOTION    = 15.80936403
ECCENTRICITY   = .0001772
INCLINATION    = 97.2832
RA_OF_ASC_NODE = 282.1932
ARG_OF_PERICENTER = 85.6916
MEAN_ANOMALY   = 274.4554

EPHEMERIS_TYPE = 0
CLASSIFICATION_TYPE = U
NORAD_CAT_ID   = 67532
ELEMENT_SET_NO = 999
REV_AT_EPOCH   = 386
BSTAR          = .15252E-2
MEAN_MOTION_DOT = .304092E-2
MEAN_MOTION_DDOT = 0

CCSDS_OMM_VERS = 2.0
CREATION_DATE  = 
ORIGINATOR     = 

OBJECT_NAME    = STARLINK-36417
OBJECT_ID      = 2026-014B
CENTER_NAME    = EARTH
REF_FRAME      = TEME
TIME_SYSTEM    = UTC
MEAN_ELEMENT_THEORY = SGP/SGP4

EPOCH          = 2026-02-07T20:00:03.000384
MEAN_MOTION    = 15.75197965
ECCENTRICITY   = .0001616
INCLINATION    = 97.2838
RA_OF_ASC_NODE = 282.2133
ARG_OF_PERICENTER = 75.5937
MEAN_ANOMALY   = 84.9145

EPHEMERIS_TYPE = 0
CLASSIFICATION_TYPE = U
NORAD_CAT_ID   = 67533
ELEMENT_SET_NO = 999
REV_AT_EPOCH   = 388
BSTAR          = -.29015E-3
MEAN_MOTION_DOT = -.43205E-3
MEAN_MOTION_DDOT = 0

CCSDS_OMM_VERS = 2.0
CREATION_DATE  = 
ORIGINATOR     = 

OBJECT_NAME    = STARLINK-36576
OBJECT_ID      = 2026-014C
CENTER_NAME    = EARTH
REF_FRAME      = TEME
TIME_SYSTEM    = UTC
MEAN_ELEMENT_THEORY = SGP/SGP4

EPOCH          = 2026-02-07T17:35:34.002816
MEAN_MOTION    = 15.80925519
ECCENTRICITY   = .000081
INCLINATION    = 97.2835
RA_OF_ASC_NODE = 282.1278
ARG_OF_PERICENTER = 61.5021
MEAN_ANOMALY   = 298.6329

EPHEMERIS_TYPE = 0
CLASSIFICATION_TYPE = U
NORAD_CAT_ID   = 67534
ELEMENT_SET_NO = 999
REV_AT_EPOCH   = 385
BSTAR          = .13903E-2
MEAN_MOTION_DOT = .276142E-2
MEAN_MOTION_DDOT = 0

CCSDS_OMM_VERS = 2.0
CREATION_DATE  = 
ORIGINATOR     = 

OBJECT_NAME    = STARLINK-36574
OBJECT_ID      = 2026-014D
CENTER_NAME    = EARTH
REF_FRAME      = TEME
TIME_SYSTEM    = UTC
MEAN_ELEMENT_THEORY = SGP/SGP4

EPOCH          = 2026-02-07T19:04:52.581792
MEAN_MOTION    = 15.80898205
ECCENTRICITY   = .0001884
INCLINATION    = 97.2839
RA_OF_ASC_NODE = 282.1963
ARG_OF_PERICENTER = 110.2597
MEAN_ANOMALY   = 249.8873

EPHEMERIS_TYPE = 0
CLASSIFICATION_TYPE = U
NORAD_CAT_ID   = 67535
ELEMENT_SET_NO = 999
REV_AT_EPOCH   = 386
BSTAR          = .93046E-3
MEAN_MOTION_DOT = .182552E-2
MEAN_MOTION_DDOT = 0

